{
  "type": "FeatureCollection",
  "features": [
    {
      "type": "Feature",
      "properties": {
        "norad_id": 66459,
        "name": "STARLINK-35449",
        "group": "last-30-days",
        "lat": -8.402844087796487,
        "lon": 111.74431767338122,
        "alt_km": 398.61345671501385,
        "timestamp": "2025-12-04T05:42:42.157767+00:00",
        "meta_object_name": "STARLINK-35449",
        "meta_object_id": "2025-262D",
        "meta_epoch": "2025-12-03T22:00:03.000096",
        "meta_mean_motion": 15.57786359,
        "meta_eccentricity": 0.00017025,
        "meta_inclination": 42.9993,
        "meta_ra_of_asc_node": 122.7637,
        "meta_arg_of_pericenter": 279.3346,
        "meta_mean_anomaly": 65.2634,
        "meta_ephemeris_type": 0,
        "meta_classification_type": "U",
        "meta_norad_cat_id": 66459,
        "meta_element_set_no": 999,
        "meta_rev_at_epoch": 422,
        "meta_bstar": -0.031103883,
        "meta_mean_motion_dot": -0.02113476,
        "meta_mean_motion_ddot": 0,
        "tle_line1": "1 66459U 25262D   25337.91670139 -.02113476  00000+0 -31104-1 0  9998",
        "tle_line2": "2 66459  42.9993 122.7637 0001702 279.3346  65.2634 15.57786359  4220"
      },
      "geometry": {
        "type": "Point",
        "coordinates": [
          111.74431767338122,
          -8.402844087796487
        ]
      }
    },
    {
      "type": "Feature",
      "properties": {
        "norad_id": 66460,
        "name": "STARLINK-35424",
        "group": "last-30-days",
        "lat": -7.108688864767163,
        "lon": 113.16979098624606,
        "alt_km": 398.50337355411193,
        "timestamp": "2025-12-04T05:42:42.157779+00:00",
        "meta_object_name": "STARLINK-35424",
        "meta_object_id": "2025-262E",
        "meta_epoch": "2025-12-03T22:00:03.000096",
        "meta_mean_motion": 15.5778242,
        "meta_eccentricity": 0.00017324,
        "meta_inclination": 42.9996,
        "meta_ra_of_asc_node": 122.759,
        "meta_arg_of_pericenter": 279.6752,
        "meta_mean_anomaly": 66.8465,
        "meta_ephemeris_type": 0,
        "meta_classification_type": "U",
        "meta_norad_cat_id": 66460,
        "meta_element_set_no": 999,
        "meta_rev_at_epoch": 422,
        "meta_bstar": -0.03111682,
        "meta_mean_motion_dot": -0.02113998,
        "meta_mean_motion_ddot": 0,
        "tle_line1": "1 66460U 25262E   25337.91670139 -.02113998  00000+0 -31117-1 0  9993",
        "tle_line2": "2 66460  42.9996 122.7590 0001732 279.6752  66.8465 15.57782420  4224"
      },
      "geometry": {
        "type": "Point",
        "coordinates": [
          113.16979098624606,
          -7.108688864767163
        ]
      }
    },
    {
      "type": "Feature",
      "properties": {
        "norad_id": 66461,
        "name": "STARLINK-35132",
        "group": "last-30-days",
        "lat": -5.814078759100978,
        "lon": 114.58284031028606,
        "alt_km": 398.38430511134356,
        "timestamp": "2025-12-04T05:42:42.157789+00:00",
        "meta_object_name": "STARLINK-35132",
        "meta_object_id": "2025-262F",
        "meta_epoch": "2025-12-03T22:00:03.000096",
        "meta_mean_motion": 15.57794006,
        "meta_eccentricity": 0.00016766,
        "meta_inclination": 42.9997,
        "meta_ra_of_asc_node": 122.7543,
        "meta_arg_of_pericenter": 279.8097,
        "meta_mean_anomaly": 68.6153,
        "meta_ephemeris_type": 0,
        "meta_classification_type": "U",
        "meta_norad_cat_id": 66461,
        "meta_element_set_no": 999,
        "meta_rev_at_epoch": 422,
        "meta_bstar": -0.031207732,
        "meta_mean_motion_dot": -0.0212028,
        "meta_mean_motion_ddot": 0,
        "tle_line1": "1 66461U 25262F   25337.91670139 -.02120280  00000+0 -31208-1 0  9997",
        "tle_line2": "2 66461  42.9997 122.7543 0001676 279.8097  68.6153 15.57794006  4222"
      },
      "geometry": {
        "type": "Point",
        "coordinates": [
          114.58284031028606,
          -5.814078759100978
        ]
      }
    },
    {
      "type": "Feature",
      "properties": {
        "norad_id": 66462,
        "name": "STARLINK-35499",
        "group": "last-30-days",
        "lat": -4.5126811584052104,
        "lon": 115.99243010092604,
        "alt_km": 398.3223998106523,
        "timestamp": "2025-12-04T05:42:42.157801+00:00",
        "meta_object_name": "STARLINK-35499",
        "meta_object_id": "2025-262G",
        "meta_epoch": "2025-12-03T22:00:03.000096",
        "meta_mean_motion": 15.5779402,
        "meta_eccentricity": 0.00016639,
        "meta_inclination": 42.9998,
        "meta_ra_of_asc_node": 122.7491,
        "meta_arg_of_pericenter": 277.8092,
        "meta_mean_anomaly": 72.5339,
        "meta_ephemeris_type": 0,
        "meta_classification_type": "U",
        "meta_norad_cat_id": 66462,
        "meta_element_set_no": 999,
        "meta_rev_at_epoch": 422,
        "meta_bstar": -0.031217604,
        "meta_mean_motion_dot": -0.02120869,
        "meta_mean_motion_ddot": 0,
        "tle_line1": "1 66462U 25262G   25337.91670139 -.02120869  00000+0 -31218-1 0  9992",
        "tle_line2": "2 66462  42.9998 122.7491 0001663 277.8092  72.5339 15.57794020  4221"
      },
      "geometry": {
        "type": "Point",
        "coordinates": [
          115.99243010092604,
          -4.5126811584052104
        ]
      }
    },
    {
      "type": "Feature",
      "properties": {
        "norad_id": 66463,
        "name": "STARLINK-35463",
        "group": "last-30-days",
        "lat": -1.902926883918723,
        "lon": 118.79783578160325,
        "alt_km": 397.94588685837425,
        "timestamp": "2025-12-04T05:42:42.157811+00:00",
        "meta_object_name": "STARLINK-35463",
        "meta_object_id": "2025-262H",
        "meta_epoch": "2025-12-03T22:00:03.000096",
        "meta_mean_motion": 15.57782155,
        "meta_eccentricity": 0.00018406,
        "meta_inclination": 42.9994,
        "meta_ra_of_asc_node": 122.7392,
        "meta_arg_of_pericenter": 282.2528,
        "meta_mean_anomaly": 71.932,
        "meta_ephemeris_type": 0,
        "meta_classification_type": "U",
        "meta_norad_cat_id": 66463,
        "meta_element_set_no": 999,
        "meta_rev_at_epoch": 422,
        "meta_bstar": -0.031024517,
        "meta_mean_motion_dot": -0.02108476,
        "meta_mean_motion_ddot": 0,
        "tle_line1": "1 66463U 25262H   25337.91670139 -.02108476  00000+0 -31025-1 0  9999",
        "tle_line2": "2 66463  42.9994 122.7392 0001840 282.2528  71.9320 15.57782155  4228"
      },
      "geometry": {
        "type": "Point",
        "coordinates": [
          118.79783578160325,
          -1.902926883918723
        ]
      }
    },
    {
      "type": "Feature",
      "properties": {
        "norad_id": 66464,
        "name": "STARLINK-35435",
        "group": "last-30-days",
        "lat": -3.2100863361341885,
        "lon": 117.39565466710111,
        "alt_km": 398.0897609533995,
        "timestamp": "2025-12-04T05:42:42.157821+00:00",
        "meta_object_name": "STARLINK-35435",
        "meta_object_id": "2025-262J",
        "meta_epoch": "2025-12-03T22:00:03.000096",
        "meta_mean_motion": 15.57794398,
        "meta_eccentricity": 0.00017294,
        "meta_inclination": 42.9997,
        "meta_ra_of_asc_node": 122.7443,
        "meta_arg_of_pericenter": 281.8225,
        "meta_mean_anomaly": 70.4352,
        "meta_ephemeris_type": 0,
        "meta_classification_type": "U",
        "meta_norad_cat_id": 66464,
        "meta_element_set_no": 999,
        "meta_rev_at_epoch": 422,
        "meta_bstar": -0.031202884,
        "meta_mean_motion_dot": -0.02120053,
        "meta_mean_motion_ddot": 0,
        "tle_line1": "1 66464U 25262J   25337.91670139 -.02120053  00000+0 -31203-1 0  9993",
        "tle_line2": "2 66464  42.9997 122.7443 0001729 281.8225  70.4352 15.57794398  4225"
      },
      "geometry": {
        "type": "Point",
        "coordinates": [
          117.39565466710111,
          -3.2100863361341885
        ]
      }
    },
    {
      "type": "Feature",
      "properties": {
        "norad_id": 66465,
        "name": "STARLINK-35448",
        "group": "last-30-days",
        "lat": 0.7100383045354659,
        "lon": 121.5937969479561,
        "alt_km": 397.78224004212734,
        "timestamp": "2025-12-04T05:42:42.157833+00:00",
        "meta_object_name": "STARLINK-35448",
        "meta_object_id": "2025-262K",
        "meta_epoch": "2025-12-03T22:00:03.000096",
        "meta_mean_motion": 15.57794262,
        "meta_eccentricity": 0.0001695,
        "meta_inclination": 42.9993,
        "meta_ra_of_asc_node": 122.7298,
        "meta_arg_of_pericenter": 279.4956,
        "meta_mean_anomaly": 78.5143,
        "meta_ephemeris_type": 0,
        "meta_classification_type": "U",
        "meta_norad_cat_id": 66465,
        "meta_element_set_no": 999,
        "meta_rev_at_epoch": 422,
        "meta_bstar": -0.031197605,
        "meta_mean_motion_dot": -0.02119701,
        "meta_mean_motion_ddot": 0,
        "tle_line1": "1 66465U 25262K   25337.91670139 -.02119701  00000+0 -31198-1 0  9995",
        "tle_line2": "2 66465  42.9993 122.7298 0001695 279.4956  78.5143 15.57794262  4223"
      },
      "geometry": {
        "type": "Point",
        "coordinates": [
          121.5937969479561,
          0.7100383045354659
        ]
      }
    }
  ]
}